{
  "type": "FeatureCollection",
  "features": [
    {
      "type": "Feature",
      "properties": {
        "norad_id": 46805,
        "name": "COSMOS 2547 (705K)",
        "group": "glo-ops",
        "lat": -41.65083943848818,
        "lon": 173.19150992061014,
        "alt_km": 19133.855748976228,
        "timestamp": "2025-12-27T14:26:30.782915+00:00",
        "meta_object_name": "COSMOS 2547 (705K)",
        "meta_object_id": "2020-075A",
        "meta_epoch": "2025-12-26T17:24:01.074816",
        "meta_mean_motion": 2.13100147,
        "meta_eccentricity": 0.00060827,
        "meta_inclination": 64.597,
        "meta_ra_of_asc_node": 198.2292,
        "meta_arg_of_pericenter": 227.4749,
        "meta_mean_anomaly": 132.5285,
        "meta_ephemeris_type": 0,
        "meta_classification_type": "U",
        "meta_norad_cat_id": 46805,
        "meta_element_set_no": 999,
        "meta_rev_at_epoch": 4023,
        "meta_bstar": 0,
        "meta_mean_motion_dot": 1.16e-06,
        "meta_mean_motion_ddot": 0,
        "tle_line1": "1 46805U 20075A   25360.72501244  .00000116  00000+0  00000+0 0  9994",
        "tle_line2": "2 46805  64.5970 198.2292 0006082 227.4749 132.5285  2.13100147 40234"
      },
      "geometry": {
        "type": "Point",
        "coordinates": [
          173.19150992061014,
          -41.65083943848818
        ]
      }
    },
    {
      "type": "Feature",
      "properties": {
        "norad_id": 52984,
        "name": "COSMOS 2557 (706K)",
        "group": "glo-ops",
        "lat": -5.051755419762762,
        "lon": 142.94323750130366,
        "alt_km": 19132.83269147884,
        "timestamp": "2025-12-27T14:26:30.782926+00:00",
        "meta_object_name": "COSMOS 2557 (706K)",
        "meta_object_id": "2022-075A",
        "meta_epoch": "2025-12-25T22:50:27.414816",
        "meta_mean_motion": 2.13102015,
        "meta_eccentricity": 0.00135372,
        "meta_inclination": 64.4024,
        "meta_ra_of_asc_node": 320.5875,
        "meta_arg_of_pericenter": 278.4992,
        "meta_mean_anomaly": 81.3515,
        "meta_ephemeris_type": 0,
        "meta_classification_type": "U",
        "meta_norad_cat_id": 52984,
        "meta_element_set_no": 999,
        "meta_rev_at_epoch": 2702,
        "meta_bstar": 0,
        "meta_mean_motion_dot": -3.5e-07,
        "meta_mean_motion_ddot": 0,
        "tle_line1": "1 52984U 22075A   25359.95170619 -.00000035  00000+0  00000+0 0  9993",
        "tle_line2": "2 52984  64.4024 320.5875 0013537 278.4992  81.3515  2.13102015 27029"
      },
      "geometry": {
        "type": "Point",
        "coordinates": [
          142.94323750130366,
          -5.051755419762762
        ]
      }
    },
    {
      "type": "Feature",
      "properties": {
        "norad_id": 54031,
        "name": "COSMOS 2559 (707K)",
        "group": "glo-ops",
        "lat": -31.477114872665247,
        "lon": -56.47377522025334,
        "alt_km": 19154.124232448397,
        "timestamp": "2025-12-27T14:26:30.782938+00:00",
        "meta_object_name": "COSMOS 2559 (707K)",
        "meta_object_id": "2022-130A",
        "meta_epoch": "2025-12-27T04:17:20.582016",
        "meta_mean_motion": 2.13101172,
        "meta_eccentricity": 0.00114466,
        "meta_inclination": 64.3739,
        "meta_ra_of_asc_node": 320.6332,
        "meta_arg_of_pericenter": 191.4904,
        "meta_mean_anomaly": 168.488,
        "meta_ephemeris_type": 0,
        "meta_classification_type": "U",
        "meta_norad_cat_id": 54031,
        "meta_element_set_no": 999,
        "meta_rev_at_epoch": 2502,
        "meta_bstar": 0,
        "meta_mean_motion_dot": -3.9e-07,
        "meta_mean_motion_ddot": 0,
        "tle_line1": "1 54031U 22130A   25361.17871044 -.00000039  00000+0  00000+0 0  9991",
        "tle_line2": "2 54031  64.3739 320.6332 0011446 191.4904 168.4880  2.13101172 25022"
      },
      "geometry": {
        "type": "Point",
        "coordinates": [
          -56.47377522025334,
          -31.477114872665247
        ]
      }
    },
    {
      "type": "Feature",
      "properties": {
        "norad_id": 54377,
        "name": "COSMOS 2564 (761)",
        "group": "glo-ops",
        "lat": 64.06993859970368,
        "lon": -85.32336640152361,
        "alt_km": 19133.71168013104,
        "timestamp": "2025-12-27T14:26:30.782949+00:00",
        "meta_object_name": "COSMOS 2564 (761)",
        "meta_object_id": "2022-161A",
        "meta_epoch": "2025-12-27T00:32:50.727840",
        "meta_mean_motion": 2.13101958,
        "meta_eccentricity": 0.00085395,
        "meta_inclination": 64.7392,
        "meta_ra_of_asc_node": 198.4243,
        "meta_arg_of_pericenter": 203.4322,
        "meta_mean_anomaly": 156.5843,
        "meta_ephemeris_type": 0,
        "meta_classification_type": "U",
        "meta_norad_cat_id": 54377,
        "meta_element_set_no": 999,
        "meta_rev_at_epoch": 2396,
        "meta_bstar": 0,
        "meta_mean_motion_dot": 1.19e-06,
        "meta_mean_motion_ddot": 0,
        "tle_line1": "1 54377U 22161A   25361.02280935  .00000119  00000+0  00000+0 0  9993",
        "tle_line2": "2 54377  64.7392 198.4243 0008539 203.4322 156.5843  2.13101958 23963"
      },
      "geometry": {
        "type": "Point",
        "coordinates": [
          -85.32336640152361,
          64.06993859970368
        ]
      }
    },
    {
      "type": "Feature",
      "properties": {
        "norad_id": 57517,
        "name": "COSMOS 2569 (703K)",
        "group": "glo-ops",
        "lat": 60.72298515134899,
        "lon": 133.85542288670325,
        "alt_km": 19146.621771648614,
        "timestamp": "2025-12-27T14:26:30.782960+00:00",
        "meta_object_name": "COSMOS 2569 (703K)",
        "meta_object_id": "2023-114A",
        "meta_epoch": "2025-12-27T00:52:02.160768",
        "meta_mean_motion": 2.13103934,
        "meta_eccentricity": 0.00110398,
        "meta_inclination": 65.2014,
        "meta_ra_of_asc_node": 78.4304,
        "meta_arg_of_pericenter": 287.2469,
        "meta_mean_anomaly": 72.6785,
        "meta_ephemeris_type": 0,
        "meta_classification_type": "U",
        "meta_norad_cat_id": 57517,
        "meta_element_set_no": 999,
        "meta_rev_at_epoch": 1859,
        "meta_bstar": 0,
        "meta_mean_motion_dot": -1.2e-07,
        "meta_mean_motion_ddot": 0,
        "tle_line1": "1 57517U 23114A   25361.03613612 -.00000012  00000+0  00000+0 0  9997",
        "tle_line2": "2 57517  65.2014  78.4304 0011039 287.2469  72.6785  2.13103934 18597"
      },
      "geometry": {
        "type": "Point",
        "coordinates": [
          133.85542288670325,
          60.72298515134899
        ]
      }
    },
    {
      "type": "Feature",
      "properties": {
        "norad_id": 63130,
        "name": "COSMOS 2584 (704K)",
        "group": "glo-ops",
        "lat": 17.34046830649664,
        "lon": -109.72121746709207,
        "alt_km": 19118.111384609838,
        "timestamp": "2025-12-27T14:26:30.782971+00:00",
        "meta_object_name": "COSMOS 2584 (704K)",
        "meta_object_id": "2025-042A",
        "meta_epoch": "2025-12-24T02:34:25.549824",
        "meta_mean_motion": 2.13102981,
        "meta_eccentricity": 0.00077651,
        "meta_inclination": 64.9819,
        "meta_ra_of_asc_node": 78.7588,
        "meta_arg_of_pericenter": 220.6893,
        "meta_mean_anomaly": 139.3012,
        "meta_ephemeris_type": 0,
        "meta_classification_type": "U",
        "meta_norad_cat_id": 63130,
        "meta_element_set_no": 999,
        "meta_rev_at_epoch": 631,
        "meta_bstar": 0,
        "meta_mean_motion_dot": 1e-08,
        "meta_mean_motion_ddot": 0,
        "tle_line1": "1 63130U 25042A   25358.10724016  .00000001  00000+0  00000+0 0  9999",
        "tle_line2": "2 63130  64.9819  78.7588 0007765 220.6893 139.3012  2.13102981  6316"
      },
      "geometry": {
        "type": "Point",
        "coordinates": [
          -109.72121746709207,
          17.34046830649664
        ]
      }
    },
    {
      "type": "Feature",
      "properties": {
        "norad_id": 65590,
        "name": "COSMOS 2596 (708K)",
        "group": "glo-ops",
        "lat": -63.23682957184945,
        "lon": -108.40421501377408,
        "alt_km": 19105.044693446056,
        "timestamp": "2025-12-27T14:26:30.782982+00:00",
        "meta_object_name": "COSMOS 2596 (708K)",
        "meta_object_id": "2025-206B",
        "meta_epoch": "2025-12-27T06:55:12.849888",
        "meta_mean_motion": 2.13100119,
        "meta_eccentricity": 0.00140535,
        "meta_inclination": 64.7362,
        "meta_ra_of_asc_node": 320.9699,
        "meta_arg_of_pericenter": 307.7313,
        "meta_mean_anomaly": 91.0332,
        "meta_ephemeris_type": 0,
        "meta_classification_type": "U",
        "meta_norad_cat_id": 65590,
        "meta_element_set_no": 999,
        "meta_rev_at_epoch": 225,
        "meta_bstar": 0,
        "meta_mean_motion_dot": -3.8e-07,
        "meta_mean_motion_ddot": 0,
        "tle_line1": "1 65590U 25206B   25361.28834317 -.00000038  00000+0  00000+0 0  9993",
        "tle_line2": "2 65590  64.7362 320.9699 0014053 307.7313  91.0332  2.13100119  2255"
      },
      "geometry": {
        "type": "Point",
        "coordinates": [
          -108.40421501377408,
          -63.23682957184945
        ]
      }
    }
  ]
}